IRIDIUM 135             
1 43070U 17083A   26165.15151807  .00000012  00000+0 -28802-5 0  9999
2 43070  86.3959 323.2849 0002061  91.5999 268.5433 14.34217574443716
IRIDIUM 138             
1 43071U 17083B   26165.17688756  .00000079  00000+0  21228-4 0  9996
2 43071  86.3974 322.9692 0002326  86.4185 273.7277 14.34218464443702
IRIDIUM 116             
1 43072U 17083C   26165.14517498  .00000054  00000+0  12386-4 0  9996
2 43072  86.3960 323.2734 0001922  97.2780 262.8634 14.34217938443735
IRIDIUM 130             
1 43073U 17083D   26165.18323059 -.00000024  00000+0 -15763-4 0  9990
2 43073  86.3967 323.5326 0001836  90.8150 269.3257 14.34217234443683
IRIDIUM 151             
1 43074U 17083E   26165.15786090  .00000019  00000+0 -28806-6 0  9993
2 43074  86.3963 323.3258 0002148  92.6130 267.5312 14.34217616443706
IRIDIUM 134             
1 43075U 17083F   26165.19591577  .00000039  00000+0  69892-5 0  9992
2 43075  86.3964 323.3179 0002088  90.3398 269.8037 14.34217958443678
IRIDIUM 137             
1 43076U 17083G   26165.13883276  .00000047  00000+0  97168-5 0  9993
2 43076  86.3965 323.4344 0002166 103.6477 256.4960 14.34217866443730
IRIDIUM 141             
1 43077U 17083H   26165.20225888  .00000014  00000+0 -18929-5 0  9994
2 43077  86.3957 323.2389 0002094  90.8534 269.2902 14.34217594443747
IRIDIUM 153             
1 43078U 17083J   26165.29397503  .00000020  00000+0  20193-6 0  9991
2 43078  86.3958 291.6806 0002286  90.0149 270.1309 14.34217695444866
IRIDIUM 131             
1 43079U 17083K   26164.98026756  .00000096  00000+0  27315-4 0  9990
2 43079  86.3967 323.5174 0002205  91.9224 268.2224 14.34218331443642
IRIDIUM 144             
1 43249U 18030A   26165.09101092  .00000056  00000+0  12906-4 0  9998
2 43249  86.3956 291.6947 0002089  96.2406 263.9028 14.34218041429693
IRIDIUM 149             
1 43250U 18030B   26165.09735437 -.00000004  00000+0 -84176-5 0  9990
2 43250  86.3953 291.6592 0002134  93.7712 266.3728 14.34217509429716
IRIDIUM 157             
1 43251U 18030C   26165.04661353  .00000018  00000+0 -80902-6 0  9999
2 43251  86.3956 291.7333 0002193  93.9415 266.2031 14.34217731429680
IRIDIUM 140             
1 43252U 18030D   26165.27494690  .00000020  00000+0 -25200-8 0  9998
2 43252  86.3956 291.6504 0002136  92.9232 267.2209 14.34217647429777
IRIDIUM 145             
1 43253U 18030E   26165.26226111  .00000065  00000+0  16219-4 0  9993
2 43253  86.3955 291.6280 0001948  99.9806 260.1610 14.34217642429708
IRIDIUM 146             
1 43254U 18030F   26165.31300244  .00000017  00000+0 -11142-5 0  9999
2 43254  86.3956 291.6190 0002098  96.2010 263.9425 14.34217661429722
IRIDIUM 148             
1 43255U 18030G   26165.28128983  .00000050  00000+0  10862-4 0  9997
2 43255  86.3956 291.6754 0002245  96.8514 263.2937 14.34217778429751
IRIDIUM 142             
1 43256U 18030H   26165.31934432  .00000177  00000+0  56154-4 0  9990
2 43256  86.3953 291.5485 0002060  97.7135 262.4295 14.34218083429728
IRIDIUM 150             
1 43257U 18030J   26165.28763216  .00000013  00000+0 -25886-5 0  9996
2 43257  86.3955 291.6782 0002020  93.3093 266.8334 14.34217519429740
IRIDIUM 143             
1 43258U 18030K   26165.26860377  .00000193  00000+0  61771-4 0  9991
2 43258  86.3960 291.7787 0002078  97.4604 262.6828 14.34217453429670
IRIDIUM 161             
1 43478U 18047C   26165.25710081  .00000287  00000+0  79398-4 0  9996
2 43478  86.4483  89.6962 0002538  85.6366 274.5124 14.43281524424710
IRIDIUM 152             
1 43479U 18047D   26165.24132282  .00000053  00000+0  11792-4 0  9992
2 43479  86.3958  89.5639 0002340  83.5185 276.6278 14.34217838422060
IRIDIUM 147             
1 43480U 18047E   26165.24766526  .00000017  00000+0 -10769-5 0  9993
2 43480  86.3959  89.5664 0002142  85.3598 274.7842 14.34217538422062
IRIDIUM 110             
1 43481U 18047F   26164.83539592  .00000086  00000+0  23746-4 0  9992
2 43481  86.3962  89.8305 0002578  83.7903 276.3587 14.34218480421999
IRIDIUM 162             
1 43482U 18047G   26165.25080853  .00000284  00000+0  78564-4 0  9999
2 43482  86.4481  89.5899 0002293  82.7240 277.4222 14.43280161424704
IRIDIUM 160             
1 43569U 18061A   26165.19984384  .00000063  00000+0  15291-4 0  9999
2 43569  86.3965  58.0465 0002275  86.0086 274.1369 14.34217827412949
IRIDIUM 166             
1 43570U 18061B   26165.22521381  .00000063  00000+0  15293-4 0  9991
2 43570  86.3965  57.9865 0002110  85.8102 274.3335 14.34217885412979
IRIDIUM 158             
1 43571U 18061C   26165.19350131  .00000032  00000+0  42945-5 0  9992
2 43571  86.3963  58.0095 0002199  81.6230 278.5215 14.34217494412933
IRIDIUM 165             
1 43572U 18061D   26165.21886996  .00000117  00000+0  34605-4 0  9996
2 43572  86.3965  58.0454 0002066  86.0729 274.0703 14.34217331412966
IRIDIUM 155             
1 43573U 18061E   26165.25058424  .00000035  00000+0  55878-5 0  9993
2 43573  86.3960  57.9013 0002126  82.1373 278.0064 14.34217657412932
