OBJECT_NAME,OBJECT_ID,EPOCH,MEAN_MOTION,ECCENTRICITY,INCLINATION,RA_OF_ASC_NODE,ARG_OF_PERICENTER,MEAN_ANOMALY,EPHEMERIS_TYPE,CLASSIFICATION_TYPE,NORAD_CAT_ID,ELEMENT_SET_NO,REV_AT_EPOCH,BSTAR,MEAN_MOTION_DOT,MEAN_MOTION_DDOT
IRIDIUM 135,2017-083A,2026-06-14T03:38:11.161248,14.34217574,.00020616,86.3959,323.2849,91.5999,268.5433,0,U,43070,999,44371,-.2880217E-5,.12E-6,0
IRIDIUM 138,2017-083B,2026-06-14T04:14:43.085184,14.34218464,.00023262,86.3974,322.9692,86.4185,273.7277,0,U,43071,999,44370,.21228115E-4,.79E-6,0
IRIDIUM 116,2017-083C,2026-06-14T03:29:03.118272,14.34217938,.00019226,86.3960,323.2734,97.2780,262.8634,0,U,43072,999,44373,.12385633E-4,.54E-6,0
IRIDIUM 130,2017-083D,2026-06-14T04:23:51.122976,14.34217234,.00018367,86.3967,323.5326,90.8150,269.3257,0,U,43073,999,44368,-.15762887E-4,-.24E-6,0
IRIDIUM 151,2017-083E,2026-06-14T03:47:19.181760,14.34217616,.00021488,86.3963,323.3258,92.6130,267.5312,0,U,43074,999,44370,-.288061E-6,.19E-6,0
IRIDIUM 134,2017-083F,2026-06-14T04:42:07.122528,14.34217958,.0002088,86.3964,323.3179,90.3398,269.8037,0,U,43075,999,44367,.6989167E-5,.39E-6,0
IRIDIUM 137,2017-083G,2026-06-14T03:19:55.150464,14.34217866,.00021669,86.3965,323.4344,103.6477,256.4960,0,U,43076,999,44373,.9716838E-5,.47E-6,0
IRIDIUM 141,2017-083H,2026-06-14T04:51:15.167232,14.34217594,.00020946,86.3957,323.2389,90.8534,269.2902,0,U,43077,999,44374,-.1892858E-5,.14E-6,0
IRIDIUM 153,2017-083J,2026-06-14T07:03:19.442592,14.34217695,.00022868,86.3958,291.6806,90.0149,270.1309,0,U,43078,999,44486,.201928E-6,.2E-6,0
IRIDIUM 131,2017-083K,2026-06-13T23:31:35.117184,14.34218331,.00022052,86.3967,323.5174,91.9224,268.2224,0,U,43079,999,44364,.27314745E-4,.96E-6,0
IRIDIUM 144,2018-030A,2026-06-14T02:11:03.343488,14.34218041,.00020894,86.3956,291.6947,96.2406,263.9028,0,U,43249,999,42969,.12905997E-4,.56E-6,0
IRIDIUM 149,2018-030B,2026-06-14T02:20:11.417568,14.34217509,.00021344,86.3953,291.6592,93.7712,266.3728,0,U,43250,999,42971,-.841762E-5,-.4E-7,0
IRIDIUM 157,2018-030C,2026-06-14T01:07:07.408992,14.34217731,.00021936,86.3956,291.7333,93.9415,266.2031,0,U,43251,999,42968,-.809021E-6,.18E-6,0
IRIDIUM 140,2018-030D,2026-06-14T06:35:55.412160,14.34217647,.00021363,86.3956,291.6504,92.9232,267.2209,0,U,43252,999,42977,-.252E-8,.2E-6,0
IRIDIUM 145,2018-030E,2026-06-14T06:17:39.359904,14.34217642,.00019488,86.3955,291.6280,99.9806,260.1610,0,U,43253,999,42970,.16219327E-4,.65E-6,0
IRIDIUM 146,2018-030F,2026-06-14T07:30:43.410816,14.34217661,.00020984,86.3956,291.6190,96.2010,263.9425,0,U,43254,999,42972,-.1114167E-5,.17E-6,0
IRIDIUM 148,2018-030G,2026-06-14T06:45:03.441312,14.34217778,.00022458,86.3956,291.6754,96.8514,263.2937,0,U,43255,999,42975,.10861724E-4,.5E-6,0
IRIDIUM 142,2018-030H,2026-06-14T07:39:51.349248,14.34218083,.00020607,86.3953,291.5485,97.7135,262.4295,0,U,43256,999,42972,.56154306E-4,.177E-5,0
IRIDIUM 150,2018-030J,2026-06-14T06:54:11.418624,14.34217519,.00020206,86.3955,291.6782,93.3093,266.8334,0,U,43257,999,42974,-.2588638E-5,.13E-6,0
IRIDIUM 143,2018-030K,2026-06-14T06:26:47.365728,14.34217453,.00020788,86.3960,291.7787,97.4604,262.6828,0,U,43258,999,42967,.61771308E-4,.193E-5,0
IRIDIUM 161,2018-047C,2026-06-14T06:10:13.509984,14.43281524,.00025388,86.4483,89.6962,85.6366,274.5124,0,U,43478,999,42471,.79397823E-4,.287E-5,0
IRIDIUM 152,2018-047D,2026-06-14T05:47:30.291648,14.34217838,.000234,86.3958,89.5639,83.5185,276.6278,0,U,43479,999,42206,.11791566E-4,.53E-6,0
IRIDIUM 147,2018-047E,2026-06-14T05:56:38.278464,14.34217538,.00021429,86.3959,89.5664,85.3598,274.7842,0,U,43480,999,42206,-.1076923E-5,.17E-6,0
IRIDIUM 110,2018-047F,2026-06-13T20:02:58.207488,14.34218480,.00025781,86.3962,89.8305,83.7903,276.3587,0,U,43481,999,42199,.2374584E-4,.86E-6,0
IRIDIUM 162,2018-047G,2026-06-14T06:01:09.856992,14.43280161,.00022932,86.4481,89.5899,82.7240,277.4222,0,U,43482,999,42470,.7856395E-4,.284E-5,0
IRIDIUM 160,2018-061A,2026-06-14T04:47:46.507776,14.34217827,.00022755,86.3965,58.0465,86.0086,274.1369,0,U,43569,999,41294,.15291243E-4,.63E-6,0
IRIDIUM 166,2018-061B,2026-06-14T05:24:18.473184,14.34217885,.00021108,86.3965,57.9865,85.8102,274.3335,0,U,43570,999,41297,.15292691E-4,.63E-6,0
IRIDIUM 158,2018-061C,2026-06-14T04:38:38.513184,14.34217494,.00021998,86.3963,58.0095,81.6230,278.5215,0,U,43571,999,41293,.4294522E-5,.32E-6,0
IRIDIUM 165,2018-061D,2026-06-14T05:15:10.364544,14.34217331,.00020669,86.3965,58.0454,86.0729,274.0703,0,U,43572,999,41296,.34604761E-4,.117E-5,0
IRIDIUM 155,2018-061E,2026-06-14T06:00:50.478336,14.34217657,.00021266,86.3960,57.9013,82.1373,278.0064,0,U,43573,999,41293,.5587771E-5,.35E-6,0
